GHGSAT-C1               
1 46278U 20061G   26199.28030553  .00027593  00000+0  19821-3 0  9998
2 46278  97.2088 285.4772 0001290 173.6777 186.4504 15.73614497328365
GHGSAT-C2               
1 47509U 21006DA  26199.11952857  .00003343  00000+0  91173-4 0  9996
2 47509  97.2125 245.8577 0006594  67.8579 292.3366 15.38128317304600
GHGSAT-C3               
1 52737U 22057F   26199.34334662  .00003491  00000+0  10632-3 0  9999
2 52737  97.6640 346.1815 0006030  25.0899 335.0635 15.34701824230317
GHGSAT-C5               
1 52744U 22057N   26199.25233450  .00003452  00000+0  10522-3 0  9995
2 52744  97.6726 347.6967 0006742  22.3664 337.7871 15.34677442230302
GHGSAT-C4               
1 52746U 22057Q   26199.29889630  .00003494  00000+0  10644-3 0  9999
2 52746  97.6566 344.9352 0005859   8.4386 351.6953 15.34688422230315
GHGSAT-C8               
1 56186U 23054J   26199.20956473  .00008964  00000+0  14108-3 0  9996
2 56186  97.2953 108.9767 0002502 349.7973  10.3230 15.53829373183256
GHGSAT-C6               
1 56204U 23054AC  26199.17582978  .00009156  00000+0  14418-3 0  9996
2 56204  97.3014 109.6481 0003237 289.4023  70.6880 15.53803331183266
GHGSAT-C7               
1 56209U 23054AH  26199.18082973  .00006259  00000+0  11146-3 0  9998
2 56209  97.2964 107.9537 0004854 289.1176  70.9550 15.50483758183192
GHGSAT-C12              
1 64529U 25135B   26199.18130555  .00001707  00000+0  81354-4 0  9996
2 64529  97.4773 313.7209 0006318  73.1711 287.0216 15.20455866 59538
GHGSAT-C13              
1 64548U 25135W   26199.29869309  .00002853  00000+0  13024-3 0  9996
2 64548  97.4805 314.4584 0001735  64.8150 295.3266 15.21421754 59583
