{"fetched_at":"2026-07-18T17:29:52.741Z","source":"https://celestrak.org/NORAD/elements/gp.php?NAME=GHGSAT&FORMAT=JSON","constellation":"ghgsat","records":[{"OBJECT_NAME":"GHGSAT-C1","OBJECT_ID":"2020-061G","EPOCH":"2026-07-18T06:43:38.397792","CLASSIFICATION_TYPE":"U","MEAN_MOTION":15.73614497,"ECCENTRICITY":0.00012907,"INCLINATION":97.2088,"RA_OF_ASC_NODE":285.4772,"ARG_OF_PERICENTER":173.6777,"MEAN_ANOMALY":186.4504,"EPHEMERIS_TYPE":0,"NORAD_CAT_ID":46278,"ELEMENT_SET_NO":999,"REV_AT_EPOCH":32836,"BSTAR":0.00019820806,"MEAN_MOTION_DOT":0.00027593,"MEAN_MOTION_DDOT":0},{"OBJECT_NAME":"GHGSAT-C2","OBJECT_ID":"2021-006DA","EPOCH":"2026-07-18T02:52:07.268448","CLASSIFICATION_TYPE":"U","MEAN_MOTION":15.38128317,"ECCENTRICITY":0.00065941,"INCLINATION":97.2125,"RA_OF_ASC_NODE":245.8577,"ARG_OF_PERICENTER":67.8579,"MEAN_ANOMALY":292.3366,"EPHEMERIS_TYPE":0,"NORAD_CAT_ID":47509,"ELEMENT_SET_NO":999,"REV_AT_EPOCH":30460,"BSTAR":0.000091172635,"MEAN_MOTION_DOT":0.00003343,"MEAN_MOTION_DDOT":0},{"OBJECT_NAME":"GHGSAT-C3","OBJECT_ID":"2022-057F","EPOCH":"2026-07-18T08:14:25.147968","CLASSIFICATION_TYPE":"U","MEAN_MOTION":15.34701824,"ECCENTRICITY":0.00060307,"INCLINATION":97.664,"RA_OF_ASC_NODE":346.1815,"ARG_OF_PERICENTER":25.0899,"MEAN_ANOMALY":335.0635,"EPHEMERIS_TYPE":0,"NORAD_CAT_ID":52737,"ELEMENT_SET_NO":999,"REV_AT_EPOCH":23031,"BSTAR":0.00010632261,"MEAN_MOTION_DOT":0.00003491,"MEAN_MOTION_DDOT":0},{"OBJECT_NAME":"GHGSAT-C5","OBJECT_ID":"2022-057N","EPOCH":"2026-07-18T06:03:21.700800","CLASSIFICATION_TYPE":"U","MEAN_MOTION":15.34677442,"ECCENTRICITY":0.00067423,"INCLINATION":97.6726,"RA_OF_ASC_NODE":347.6967,"ARG_OF_PERICENTER":22.3664,"MEAN_ANOMALY":337.7871,"EPHEMERIS_TYPE":0,"NORAD_CAT_ID":52744,"ELEMENT_SET_NO":999,"REV_AT_EPOCH":23030,"BSTAR":0.00010521835,"MEAN_MOTION_DOT":0.00003452,"MEAN_MOTION_DDOT":0},{"OBJECT_NAME":"GHGSAT-C4","OBJECT_ID":"2022-057Q","EPOCH":"2026-07-18T07:10:24.640320","CLASSIFICATION_TYPE":"U","MEAN_MOTION":15.34688422,"ECCENTRICITY":0.0005859,"INCLINATION":97.6566,"RA_OF_ASC_NODE":344.9352,"ARG_OF_PERICENTER":8.4386,"MEAN_ANOMALY":351.6953,"EPHEMERIS_TYPE":0,"NORAD_CAT_ID":52746,"ELEMENT_SET_NO":999,"REV_AT_EPOCH":23031,"BSTAR":0.00010644075,"MEAN_MOTION_DOT":0.00003494,"MEAN_MOTION_DDOT":0},{"OBJECT_NAME":"GHGSAT-C8","OBJECT_ID":"2023-054J","EPOCH":"2026-07-18T05:01:46.392672","CLASSIFICATION_TYPE":"U","MEAN_MOTION":15.53829373,"ECCENTRICITY":0.00025027,"INCLINATION":97.2953,"RA_OF_ASC_NODE":108.9767,"ARG_OF_PERICENTER":349.7973,"MEAN_ANOMALY":10.323,"EPHEMERIS_TYPE":0,"NORAD_CAT_ID":56186,"ELEMENT_SET_NO":999,"REV_AT_EPOCH":18325,"BSTAR":0.00014107647,"MEAN_MOTION_DOT":0.00008964,"MEAN_MOTION_DDOT":0},{"OBJECT_NAME":"GHGSAT-C6","OBJECT_ID":"2023-054AC","EPOCH":"2026-07-18T04:13:11.692992","CLASSIFICATION_TYPE":"U","MEAN_MOTION":15.53803331,"ECCENTRICITY":0.00032372,"INCLINATION":97.3014,"RA_OF_ASC_NODE":109.6481,"ARG_OF_PERICENTER":289.4023,"MEAN_ANOMALY":70.688,"EPHEMERIS_TYPE":0,"NORAD_CAT_ID":56204,"ELEMENT_SET_NO":999,"REV_AT_EPOCH":18326,"BSTAR":0.00014418316,"MEAN_MOTION_DOT":0.00009156,"MEAN_MOTION_DDOT":0},{"OBJECT_NAME":"GHGSAT-C7","OBJECT_ID":"2023-054AH","EPOCH":"2026-07-18T04:20:23.688672","CLASSIFICATION_TYPE":"U","MEAN_MOTION":15.50483758,"ECCENTRICITY":0.00048542,"INCLINATION":97.2964,"RA_OF_ASC_NODE":107.9537,"ARG_OF_PERICENTER":289.1176,"MEAN_ANOMALY":70.955,"EPHEMERIS_TYPE":0,"NORAD_CAT_ID":56209,"ELEMENT_SET_NO":999,"REV_AT_EPOCH":18319,"BSTAR":0.00011146387,"MEAN_MOTION_DOT":0.00006259,"MEAN_MOTION_DDOT":0},{"OBJECT_NAME":"GHGSAT-C12","OBJECT_ID":"2025-135B","EPOCH":"2026-07-18T04:21:04.799520","CLASSIFICATION_TYPE":"U","MEAN_MOTION":15.20455866,"ECCENTRICITY":0.0006318,"INCLINATION":97.4773,"RA_OF_ASC_NODE":313.7209,"ARG_OF_PERICENTER":73.1711,"MEAN_ANOMALY":287.0216,"EPHEMERIS_TYPE":0,"NORAD_CAT_ID":64529,"ELEMENT_SET_NO":999,"REV_AT_EPOCH":5953,"BSTAR":0.000081354024,"MEAN_MOTION_DOT":0.00001707,"MEAN_MOTION_DDOT":0},{"OBJECT_NAME":"GHGSAT-C13","OBJECT_ID":"2025-135W","EPOCH":"2026-07-18T07:10:07.082976","CLASSIFICATION_TYPE":"U","MEAN_MOTION":15.21421754,"ECCENTRICITY":0.00017357,"INCLINATION":97.4805,"RA_OF_ASC_NODE":314.4584,"ARG_OF_PERICENTER":64.815,"MEAN_ANOMALY":295.3266,"EPHEMERIS_TYPE":0,"NORAD_CAT_ID":64548,"ELEMENT_SET_NO":999,"REV_AT_EPOCH":5958,"BSTAR":0.00013023695,"MEAN_MOTION_DOT":0.00002853,"MEAN_MOTION_DDOT":0}]}
